0 PSLV DEB
1 27585U 01049ND  13280.76633091  .00001210  00000-0  19832-3 0  1183
2 27585 097.9418 212.9983 0067366 035.8897 023.1349 14.71055547618050
0 PSLV DEB
1 27585U 01049ND  13283.08025733  .00001478  00000-0  24046-3 0  1199
2 27585 097.9421 215.2548 0067175 028.5744 037.1707 14.71067367618398
0 PSLV DEB
1 27585U 01049ND  13285.60794159  .00001334  00000-0  21787-3 0  1206
2 27585 097.9427 217.7197 0066962 020.5343 103.3643 14.71075196618766
0 PSLV DEB
1 27585U 01049ND  13288.04424917  .00002421  00000-0  38857-3 0  1214
2 27585 097.9432 220.0956 0066733 012.7781 045.7230 14.71085361619124
0 PSLV DEB
1 27585U 01049ND  13290.08412102  .00001951  00000-0  31479-3 0  1225
2 27585 097.9436 222.0851 0066566 006.2701 048.7013 14.71094433619423
0 PSLV DEB
1 27585U 01049ND  13293.07706199  .00002605  00000-0  41747-3 0  1236
2 27585 097.9435 225.0040 0066404 356.7042 059.1979 14.71104613619864
